ORBCOMM FM05            
1 25117U 97084F   25225.35278576  .00001183  00000+0  36866-3 0  9997
2 25117  45.0149  93.5509 0002159 120.3490 239.7575 14.46082234448882
ORBCOMM FM06            
1 25118U 97084G   25225.37186670  .00001388  00000+0  42428-3 0  9991
2 25118  45.0142  93.1340 0001259 102.0290  67.2019 14.46223326449809
ORBCOMM FM07            
1 25119U 97084H   25225.35282751  .00001349  00000+0  41359-3 0  9996
2 25119  45.0138  93.9922 0003013 120.9105 239.2043 14.46226559449790
ORBCOMM FM03            
1 25158U 98007B   25225.58358662  .00000710  00000+0  29451-3 0  9995
2 25158 107.9676 253.5231 0044171 150.6373 209.7262 14.34609327432277
ORBCOMM FM04            
1 25159U 98007C   25225.55795444  .00000775  00000+0  31651-3 0  9992
2 25159 107.9664 256.7311 0039882 148.2746 212.0808 14.34854658432451
ORBCOMM FM17            
1 25413U 98046A   25225.61985506  .00000674  00000+0  28254-3 0  9998
2 25413  44.9958 346.5352 0003744 163.7627 196.3341 14.35182692411424
ORBCOMM FM18            
1 25414U 98046B   25225.43294219  .00000755  00000+0  28985-3 0  9994
2 25414  44.9922 263.2810 0006580 228.8905 131.1376 14.38670974412494
ORBCOMM FM19            
1 25415U 98046C   25225.48470323  .00000819  00000+0  31184-3 0  9998
2 25415  44.9934 265.1242 0005314 229.1090 275.4647 14.38482530412459
