<?xml version="1.0" encoding="UTF-8"?>
<ndm xmlns:xsi="http://www.w3.org/2001/XMLSchema-instance" xsi:noNamespaceSchemaLocation="https://sanaregistry.org/r/ndmxml_unqualified/ndmxml-2.0.0-master-2.0.xsd">
<omm id="CCSDS_OMM_VERS" version="2.0">
<header><CREATION_DATE/><ORIGINATOR/></header><body><segment><metadata><OBJECT_NAME>ORBCOMM FM05</OBJECT_NAME><OBJECT_ID>1997-084F</OBJECT_ID><CENTER_NAME>EARTH</CENTER_NAME><REF_FRAME>TEME</REF_FRAME><TIME_SYSTEM>UTC</TIME_SYSTEM><MEAN_ELEMENT_THEORY>SGP4</MEAN_ELEMENT_THEORY></metadata><data><meanElements><EPOCH>2025-08-13T08:28:00.689664</EPOCH><MEAN_MOTION>14.46082234</MEAN_MOTION><ECCENTRICITY>.0002159</ECCENTRICITY><INCLINATION>45.0149</INCLINATION><RA_OF_ASC_NODE>93.5509</RA_OF_ASC_NODE><ARG_OF_PERICENTER>120.3490</ARG_OF_PERICENTER><MEAN_ANOMALY>239.7575</MEAN_ANOMALY></meanElements><tleParameters><EPHEMERIS_TYPE>0</EPHEMERIS_TYPE><CLASSIFICATION_TYPE>U</CLASSIFICATION_TYPE><NORAD_CAT_ID>25117</NORAD_CAT_ID><ELEMENT_SET_NO>999</ELEMENT_SET_NO><REV_AT_EPOCH>44888</REV_AT_EPOCH><BSTAR>.36866E-3</BSTAR><MEAN_MOTION_DOT>.1183E-4</MEAN_MOTION_DOT><MEAN_MOTION_DDOT>0</MEAN_MOTION_DDOT></tleParameters></data></segment></body></omm>
<omm id="CCSDS_OMM_VERS" version="2.0">
<header><CREATION_DATE/><ORIGINATOR/></header><body><segment><metadata><OBJECT_NAME>ORBCOMM FM06</OBJECT_NAME><OBJECT_ID>1997-084G</OBJECT_ID><CENTER_NAME>EARTH</CENTER_NAME><REF_FRAME>TEME</REF_FRAME><TIME_SYSTEM>UTC</TIME_SYSTEM><MEAN_ELEMENT_THEORY>SGP4</MEAN_ELEMENT_THEORY></metadata><data><meanElements><EPOCH>2025-08-13T08:55:29.282880</EPOCH><MEAN_MOTION>14.46223326</MEAN_MOTION><ECCENTRICITY>.0001259</ECCENTRICITY><INCLINATION>45.0142</INCLINATION><RA_OF_ASC_NODE>93.1340</RA_OF_ASC_NODE><ARG_OF_PERICENTER>102.0290</ARG_OF_PERICENTER><MEAN_ANOMALY>67.2019</MEAN_ANOMALY></meanElements><tleParameters><EPHEMERIS_TYPE>0</EPHEMERIS_TYPE><CLASSIFICATION_TYPE>U</CLASSIFICATION_TYPE><NORAD_CAT_ID>25118</NORAD_CAT_ID><ELEMENT_SET_NO>999</ELEMENT_SET_NO><REV_AT_EPOCH>44980</REV_AT_EPOCH><BSTAR>.42428E-3</BSTAR><MEAN_MOTION_DOT>.1388E-4</MEAN_MOTION_DOT><MEAN_MOTION_DDOT>0</MEAN_MOTION_DDOT></tleParameters></data></segment></body></omm>
<omm id="CCSDS_OMM_VERS" version="2.0">
<header><CREATION_DATE/><ORIGINATOR/></header><body><segment><metadata><OBJECT_NAME>ORBCOMM FM07</OBJECT_NAME><OBJECT_ID>1997-084H</OBJECT_ID><CENTER_NAME>EARTH</CENTER_NAME><REF_FRAME>TEME</REF_FRAME><TIME_SYSTEM>UTC</TIME_SYSTEM><MEAN_ELEMENT_THEORY>SGP4</MEAN_ELEMENT_THEORY></metadata><data><meanElements><EPOCH>2025-08-13T08:28:04.296864</EPOCH><MEAN_MOTION>14.46226559</MEAN_MOTION><ECCENTRICITY>.0003013</ECCENTRICITY><INCLINATION>45.0138</INCLINATION><RA_OF_ASC_NODE>93.9922</RA_OF_ASC_NODE><ARG_OF_PERICENTER>120.9105</ARG_OF_PERICENTER><MEAN_ANOMALY>239.2043</MEAN_ANOMALY></meanElements><tleParameters><EPHEMERIS_TYPE>0</EPHEMERIS_TYPE><CLASSIFICATION_TYPE>U</CLASSIFICATION_TYPE><NORAD_CAT_ID>25119</NORAD_CAT_ID><ELEMENT_SET_NO>999</ELEMENT_SET_NO><REV_AT_EPOCH>44979</REV_AT_EPOCH><BSTAR>.41359E-3</BSTAR><MEAN_MOTION_DOT>.1349E-4</MEAN_MOTION_DOT><MEAN_MOTION_DDOT>0</MEAN_MOTION_DDOT></tleParameters></data></segment></body></omm>
<omm id="CCSDS_OMM_VERS" version="2.0">
<header><CREATION_DATE/><ORIGINATOR/></header><body><segment><metadata><OBJECT_NAME>ORBCOMM FM03</OBJECT_NAME><OBJECT_ID>1998-007B</OBJECT_ID><CENTER_NAME>EARTH</CENTER_NAME><REF_FRAME>TEME</REF_FRAME><TIME_SYSTEM>UTC</TIME_SYSTEM><MEAN_ELEMENT_THEORY>SGP4</MEAN_ELEMENT_THEORY></metadata><data><meanElements><EPOCH>2025-08-13T14:00:21.883968</EPOCH><MEAN_MOTION>14.34609327</MEAN_MOTION><ECCENTRICITY>.0044171</ECCENTRICITY><INCLINATION>107.9676</INCLINATION><RA_OF_ASC_NODE>253.5231</RA_OF_ASC_NODE><ARG_OF_PERICENTER>150.6373</ARG_OF_PERICENTER><MEAN_ANOMALY>209.7262</MEAN_ANOMALY></meanElements><tleParameters><EPHEMERIS_TYPE>0</EPHEMERIS_TYPE><CLASSIFICATION_TYPE>U</CLASSIFICATION_TYPE><NORAD_CAT_ID>25158</NORAD_CAT_ID><ELEMENT_SET_NO>999</ELEMENT_SET_NO><REV_AT_EPOCH>43227</REV_AT_EPOCH><BSTAR>.29451E-3</BSTAR><MEAN_MOTION_DOT>.71E-5</MEAN_MOTION_DOT><MEAN_MOTION_DDOT>0</MEAN_MOTION_DDOT></tleParameters></data></segment></body></omm>
<omm id="CCSDS_OMM_VERS" version="2.0">
<header><CREATION_DATE/><ORIGINATOR/></header><body><segment><metadata><OBJECT_NAME>ORBCOMM FM04</OBJECT_NAME><OBJECT_ID>1998-007C</OBJECT_ID><CENTER_NAME>EARTH</CENTER_NAME><REF_FRAME>TEME</REF_FRAME><TIME_SYSTEM>UTC</TIME_SYSTEM><MEAN_ELEMENT_THEORY>SGP4</MEAN_ELEMENT_THEORY></metadata><data><meanElements><EPOCH>2025-08-13T13:23:27.263616</EPOCH><MEAN_MOTION>14.34854658</MEAN_MOTION><ECCENTRICITY>.0039882</ECCENTRICITY><INCLINATION>107.9664</INCLINATION><RA_OF_ASC_NODE>256.7311</RA_OF_ASC_NODE><ARG_OF_PERICENTER>148.2746</ARG_OF_PERICENTER><MEAN_ANOMALY>212.0808</MEAN_ANOMALY></meanElements><tleParameters><EPHEMERIS_TYPE>0</EPHEMERIS_TYPE><CLASSIFICATION_TYPE>U</CLASSIFICATION_TYPE><NORAD_CAT_ID>25159</NORAD_CAT_ID><ELEMENT_SET_NO>999</ELEMENT_SET_NO><REV_AT_EPOCH>43245</REV_AT_EPOCH><BSTAR>.31651E-3</BSTAR><MEAN_MOTION_DOT>.775E-5</MEAN_MOTION_DOT><MEAN_MOTION_DDOT>0</MEAN_MOTION_DDOT></tleParameters></data></segment></body></omm>
<omm id="CCSDS_OMM_VERS" version="2.0">
<header><CREATION_DATE/><ORIGINATOR/></header><body><segment><metadata><OBJECT_NAME>ORBCOMM FM17</OBJECT_NAME><OBJECT_ID>1998-046A</OBJECT_ID><CENTER_NAME>EARTH</CENTER_NAME><REF_FRAME>TEME</REF_FRAME><TIME_SYSTEM>UTC</TIME_SYSTEM><MEAN_ELEMENT_THEORY>SGP4</MEAN_ELEMENT_THEORY></metadata><data><meanElements><EPOCH>2025-08-13T14:52:35.477184</EPOCH><MEAN_MOTION>14.35182692</MEAN_MOTION><ECCENTRICITY>.0003744</ECCENTRICITY><INCLINATION>44.9958</INCLINATION><RA_OF_ASC_NODE>346.5352</RA_OF_ASC_NODE><ARG_OF_PERICENTER>163.7627</ARG_OF_PERICENTER><MEAN_ANOMALY>196.3341</MEAN_ANOMALY></meanElements><tleParameters><EPHEMERIS_TYPE>0</EPHEMERIS_TYPE><CLASSIFICATION_TYPE>U</CLASSIFICATION_TYPE><NORAD_CAT_ID>25413</NORAD_CAT_ID><ELEMENT_SET_NO>999</ELEMENT_SET_NO><REV_AT_EPOCH>41142</REV_AT_EPOCH><BSTAR>.28254E-3</BSTAR><MEAN_MOTION_DOT>.674E-5</MEAN_MOTION_DOT><MEAN_MOTION_DDOT>0</MEAN_MOTION_DDOT></tleParameters></data></segment></body></omm>
<omm id="CCSDS_OMM_VERS" version="2.0">
<header><CREATION_DATE/><ORIGINATOR/></header><body><segment><metadata><OBJECT_NAME>ORBCOMM FM18</OBJECT_NAME><OBJECT_ID>1998-046B</OBJECT_ID><CENTER_NAME>EARTH</CENTER_NAME><REF_FRAME>TEME</REF_FRAME><TIME_SYSTEM>UTC</TIME_SYSTEM><MEAN_ELEMENT_THEORY>SGP4</MEAN_ELEMENT_THEORY></metadata><data><meanElements><EPOCH>2025-08-13T10:23:26.205216</EPOCH><MEAN_MOTION>14.38670974</MEAN_MOTION><ECCENTRICITY>.000658</ECCENTRICITY><INCLINATION>44.9922</INCLINATION><RA_OF_ASC_NODE>263.2810</RA_OF_ASC_NODE><ARG_OF_PERICENTER>228.8905</ARG_OF_PERICENTER><MEAN_ANOMALY>131.1376</MEAN_ANOMALY></meanElements><tleParameters><EPHEMERIS_TYPE>0</EPHEMERIS_TYPE><CLASSIFICATION_TYPE>U</CLASSIFICATION_TYPE><NORAD_CAT_ID>25414</NORAD_CAT_ID><ELEMENT_SET_NO>999</ELEMENT_SET_NO><REV_AT_EPOCH>41249</REV_AT_EPOCH><BSTAR>.28985E-3</BSTAR><MEAN_MOTION_DOT>.755E-5</MEAN_MOTION_DOT><MEAN_MOTION_DDOT>0</MEAN_MOTION_DDOT></tleParameters></data></segment></body></omm>
<omm id="CCSDS_OMM_VERS" version="2.0">
<header><CREATION_DATE/><ORIGINATOR/></header><body><segment><metadata><OBJECT_NAME>ORBCOMM FM19</OBJECT_NAME><OBJECT_ID>1998-046C</OBJECT_ID><CENTER_NAME>EARTH</CENTER_NAME><REF_FRAME>TEME</REF_FRAME><TIME_SYSTEM>UTC</TIME_SYSTEM><MEAN_ELEMENT_THEORY>SGP4</MEAN_ELEMENT_THEORY></metadata><data><meanElements><EPOCH>2025-08-13T11:37:58.359072</EPOCH><MEAN_MOTION>14.38482530</MEAN_MOTION><ECCENTRICITY>.0005314</ECCENTRICITY><INCLINATION>44.9934</INCLINATION><RA_OF_ASC_NODE>265.1242</RA_OF_ASC_NODE><ARG_OF_PERICENTER>229.1090</ARG_OF_PERICENTER><MEAN_ANOMALY>275.4647</MEAN_ANOMALY></meanElements><tleParameters><EPHEMERIS_TYPE>0</EPHEMERIS_TYPE><CLASSIFICATION_TYPE>U</CLASSIFICATION_TYPE><NORAD_CAT_ID>25415</NORAD_CAT_ID><ELEMENT_SET_NO>999</ELEMENT_SET_NO><REV_AT_EPOCH>41245</REV_AT_EPOCH><BSTAR>.31184E-3</BSTAR><MEAN_MOTION_DOT>.819E-5</MEAN_MOTION_DOT><MEAN_MOTION_DDOT>0</MEAN_MOTION_DDOT></tleParameters></data></segment></body></omm>

</ndm>
